{
"type": "FeatureCollection",
"name": "Limite_cote_d'ivoire",
"crs": { "type": "name", "properties": { "name": "urn:ogc:def:crs:OGC:1.3:CRS84" } },
"features": [
{ "type": "Feature", "properties": { "fid": 407, "iso_a2": "CI", "NAME": "Côte d'Ivoire", "FIPS_10_": "IV", "ISO_A3": "CIV", "WB_A2": "CI", "WB_A3": "CIV" }, "geometry": { "type": "MultiPolygon", "coordinates": [ [ [ [ -3.115305142001382, 5.107814846938009 ], [ -3.119618293004491, 5.091335357007964 ], [ -3.276356575003733, 5.118109444387541 ], [ -3.234120245985028, 5.163478898627116 ], [ -3.115305142001382, 5.107814846938009 ] ] ], [ [ [ -5.32448258232696, 5.190827129818097 ], [ -5.323963996004207, 5.190130928635702 ], [ -5.31696529902236, 5.194159255554931 ], [ -5.311512825008877, 5.195786854425886 ], [ -5.297352667982756, 5.197577209429105 ], [ -5.297352668004185, 5.190130928635702 ], [ -5.305002408001108, 5.181626695443946 ], [ -5.328439908012258, 5.170070709699004 ], [ -5.338286912975356, 5.163478898627116 ], [ -5.338286912985073, 5.183294983344377 ], [ -5.352528449991928, 5.141831769957629 ], [ -5.359364386992179, 5.128648176051049 ], [ -5.392893033021453, 5.177069411106445 ], [ -5.400380012021449, 5.177069411106445 ], [ -5.40078691298859, 5.173976950729657 ], [ -5.40038001197505, 5.163478898627116 ], [ -5.413929816994339, 5.170314843895636 ], [ -5.398996549006498, 5.141994535476255 ], [ -5.357899543001291, 5.123521226524512 ], [ -5.308827278003595, 5.118150133419942 ], [ -5.269398566992335, 5.128648176051049 ], [ -5.28547115799204, 5.140773826945836 ], [ -5.302357550990322, 5.14044830529699 ], [ -5.320139127011238, 5.13764069633251 ], [ -5.338286913008108, 5.142320057125189 ], [ -5.338286913005033, 5.149115303947796 ], [ -5.328114386999082, 5.148504949681794 ], [ -5.3199356760085, 5.149807036279122 ], [ -5.312570766990093, 5.152573956216924 ], [ -5.304798957002922, 5.156642972143255 ], [ -5.299468554000629, 5.160956122268685 ], [ -5.286854620983786, 5.174058328795255 ], [ -5.283070442021006, 5.177069411106445 ], [ -5.268137174003917, 5.173732816532874 ], [ -5.251616990988397, 5.165432028528261 ], [ -5.235463020023955, 5.161322342339733 ], [ -5.221587693994535, 5.170314843895636 ], [ -5.209339973018117, 5.162827874103544 ], [ -5.197132942007182, 5.16014232283792 ], [ -5.186919726019807, 5.164252027802282 ], [ -5.180653450020568, 5.177069411106445 ], [ -5.198963996009722, 5.174383859834317 ], [ -5.207020636994474, 5.182440494877675 ], [ -5.21377519400271, 5.193019925079525 ], [ -5.228423631982993, 5.197577209429105 ], [ -5.228423632004409, 5.204413154736526 ], [ -5.214751756983039, 5.197577209429105 ], [ -5.181385870999212, 5.202337957723704 ], [ -5.120757615980624, 5.16697824932588 ], [ -5.094960090003756, 5.173732816532874 ], [ -5.080922003982637, 5.184759826080911 ], [ -5.067738410980438, 5.186957090186383 ], [ -5.033192511985902, 5.183294983344377 ], [ -5.029123502013477, 5.175726635470229 ], [ -5.023426887019586, 5.158514723976727 ], [ -5.014881964991599, 5.140082094615602 ], [ -5.002430792992698, 5.128648176051049 ], [ -5.255360480999469, 5.121039129827855 ], [ -5.294300911004006, 5.106024482574333 ], [ -5.42831604237882, 5.098875567937477 ], [ -5.495676236006396, 5.095282296404627 ], [ -5.550526496000999, 5.114976304398549 ], [ -5.578439908008241, 5.094549875047846 ], [ -5.55052649598875, 5.087713929871579 ], [ -5.630238411005827, 5.063218494152564 ], [ -5.858684318527914, 5.027692404274831 ], [ -6.412220832107955, 4.823879334551077 ], [ -6.441517706726015, 4.79393129194128 ], [ -6.583851692084455, 4.76040276329016 ], [ -6.626820442163964, 4.724595497841205 ], [ -6.903146939431791, 4.662014199553056 ], [ -7.058216925638092, 4.53900776802674 ], [ -7.173451300814805, 4.518784841483722 ], [ -7.232818162887334, 4.49331285879604 ], [ -7.255238411097688, 4.465521581710482 ], [ -7.359852667934882, 4.416083055384905 ], [ -7.438710089564426, 4.350978776878971 ], [ -7.540666124703685, 4.352844727390326 ], [ -7.579196736669294, 4.387149255771768 ], [ -7.564313925124554, 4.42582919953056 ], [ -7.572478801054667, 4.723356237433722 ], [ -7.579558472181549, 4.784282785819824 ], [ -7.605996506831827, 4.817363378312309 ], [ -7.605500040112902, 4.897428315105826 ], [ -7.574959270433911, 4.921561297629728 ], [ -7.549534463884426, 4.913887196039898 ], [ -7.571600300898504, 4.975382154196857 ], [ -7.575786091999142, 5.072068785786071 ], [ -7.546847290003437, 5.097700298944932 ], [ -7.515841431007766, 5.091809186139322 ], [ -7.488918009997408, 5.140669250311377 ], [ -7.475688842970248, 5.264227591998579 ], [ -7.439928752002705, 5.290169169749421 ], [ -7.428508259997063, 5.256140238225868 ], [ -7.418793091027619, 5.260455228533941 ], [ -7.389750935947547, 5.317144252809113 ], [ -7.396933960023746, 5.366443589416519 ], [ -7.429696818974974, 5.374298394312659 ], [ -7.449953978951181, 5.422770882038596 ], [ -7.4098518602475, 5.513416962902528 ], [ -7.419981649003592, 5.523126526973065 ], [ -7.393626668956032, 5.523979175365029 ], [ -7.411920125933142, 5.560359378417522 ], [ -7.405098835948541, 5.572399990487962 ], [ -7.384118205002433, 5.568963522659696 ], [ -7.417962620984157, 5.627756680886944 ], [ -7.449488891917287, 5.732364378741609 ], [ -7.446543335865094, 5.845949163724944 ], [ -7.478582722882126, 5.859875967221662 ], [ -7.494395710927039, 5.80618416550817 ], [ -7.531085978885096, 5.842021761127445 ], [ -7.527778687125366, 5.858842499516572 ], [ -7.559146281099016, 5.839851403841319 ], [ -7.587206584055346, 5.86677481479389 ], [ -7.584157673971172, 5.88369882485861 ], [ -7.680482543991265, 5.940930478896972 ], [ -7.717172810849856, 5.90075201839341 ], [ -7.786625936134812, 5.958164604402961 ], [ -7.800681925983384, 5.981729020044321 ], [ -7.786470905960806, 6.025111380679019 ], [ -7.80967362490379, 6.071206744247374 ], [ -7.828380494071977, 6.080715248001123 ], [ -7.850911416860824, 6.067563545261367 ], [ -7.861815144879746, 6.081490348780986 ], [ -7.846622273856461, 6.197478096681623 ], [ -7.91437007675566, 6.271737107207588 ], [ -8.033019164899155, 6.301761146408437 ], [ -8.170581827820646, 6.2740108863594 ], [ -8.295070353199794, 6.313362572375945 ], [ -8.302718465706922, 6.340647621680265 ], [ -8.322355510154278, 6.336461927301917 ], [ -8.352947956693553, 6.361059810346692 ], [ -8.411807413873618, 6.340027541063302 ], [ -8.423692993087792, 6.351990680694085 ], [ -8.405967977118324, 6.37224784918975 ], [ -8.419042115196474, 6.407646220596494 ], [ -8.40508947801073, 6.436326601294924 ], [ -8.418266968119879, 6.451209437258568 ], [ -8.467514608061681, 6.487072868876807 ], [ -8.49722855697104, 6.431365655969285 ], [ -8.556501425079832, 6.487021195492702 ], [ -8.618719848871114, 6.492834751629559 ], [ -8.441645674037725, 6.655310139952817 ], [ -8.337496704071146, 6.777261876613319 ], [ -8.314965780300643, 6.850280721364418 ], [ -8.33367264778941, 6.882578387294259 ], [ -8.319978394210654, 6.959989768452908 ], [ -8.286647094999658, 6.993786111952787 ], [ -8.284114949646504, 7.017867258958796 ], [ -8.305353962825953, 7.146903347603912 ], [ -8.387674519717786, 7.314955084794247 ], [ -8.425605021999019, 7.501920470830277 ], [ -8.443640095294899, 7.537111990724203 ], [ -8.485446330732536, 7.557989535429863 ], [ -8.414804646385717, 7.612921334212658 ], [ -8.390878458950873, 7.585791311862044 ], [ -8.33677323335065, 7.597831808384389 ], [ -8.303235230443923, 7.589305401587509 ], [ -8.228976196232479, 7.544295190398895 ], [ -8.200244099737478, 7.576334483905253 ], [ -8.197866983227119, 7.618554032139856 ], [ -8.127380330814722, 7.713018661872671 ], [ -8.115133016444377, 7.776890851834533 ], [ -8.098260661513836, 7.791877029989493 ], [ -8.131204387556682, 7.842416588071988 ], [ -8.128878947675105, 7.882569197666523 ], [ -8.079114542333567, 7.957654804256565 ], [ -8.067228964638906, 8.020751887794997 ], [ -8.011986858311023, 8.035557207753117 ], [ -7.962635864358181, 8.015170864073436 ], [ -7.965637542803134, 8.026927455612284 ], [ -8.021288614879337, 8.102658974811161 ], [ -8.003305215711839, 8.184049325341046 ], [ -8.085522420298178, 8.162035272100953 ], [ -8.182932495530576, 8.191671746803998 ], [ -8.265976521258965, 8.24598345174066 ], [ -8.245305949701644, 8.285076750660512 ], [ -8.235280721201107, 8.3795155179756 ], [ -8.254401000713825, 8.446513927748267 ], [ -8.200295776734849, 8.491834162294071 ], [ -7.970542357715727, 8.496950124616436 ], [ -7.898582926744562, 8.426282607953489 ], [ -7.848585978633825, 8.428634045997182 ], [ -7.845743774533871, 8.474315994421787 ], [ -7.82383296636514, 8.477855619099863 ], [ -7.77101965256017, 8.386517558052558 ], [ -7.720738485474229, 8.368534329061871 ], [ -7.662447470061766, 8.37486461555406 ], [ -7.689577597635406, 8.438659277538843 ], [ -7.679242310355975, 8.505089278458019 ], [ -7.696812297732928, 8.62484947868727 ], [ -7.803679157596274, 8.749053578929981 ], [ -7.958915161373808, 8.781997439319348 ], [ -7.968940389135742, 8.812848228252173 ], [ -7.931836711880533, 8.996558070444848 ], [ -7.827036906492006, 9.057820416501578 ], [ -7.748202715765127, 9.075403170242529 ], [ -7.823367879862587, 9.131976158259279 ], [ -7.847914185316608, 9.168562980952473 ], [ -7.878713338189656, 9.163912080611059 ], [ -7.92956294821297, 9.183885025185772 ], [ -7.870600138338284, 9.41859939987221 ], [ -7.933025269094673, 9.414258540256141 ], [ -7.99157466570732, 9.385319676097803 ], [ -8.070432902754659, 9.397541318641514 ], [ -8.145363729865021, 9.497147656405968 ], [ -8.161021688252095, 9.553604062856692 ], [ -8.123504597218068, 9.844852279747865 ], [ -8.128103800607825, 9.866246530900387 ], [ -8.150996460652392, 9.866143184287623 ], [ -8.14954952086849, 9.905339789979482 ], [ -8.174715942689316, 9.933038183162063 ], [ -8.152391724279108, 9.949988228340608 ], [ -8.136268676004807, 9.96944412801561 ], [ -8.158489543792777, 9.984921483603845 ], [ -8.127535359992608, 10.037114561936798 ], [ -8.034879516971241, 10.0857937587724 ], [ -7.989662639028687, 10.16199066622757 ], [ -7.929046182936897, 10.160957123645458 ], [ -7.838664103957604, 10.203719374684082 ], [ -7.778254354031987, 10.278340153790626 ], [ -7.764405070016959, 10.312911684532327 ], [ -7.777582560076318, 10.329861563361165 ], [ -7.735337077023697, 10.347095645551683 ], [ -7.723994100005835, 10.363606262883129 ], [ -7.736034708958724, 10.37828236288251 ], [ -7.643688924894544, 10.44047493925993 ], [ -7.607773803990082, 10.418719175520028 ], [ -7.556381592060363, 10.41727224616778 ], [ -7.515841431037881, 10.457812404757593 ], [ -7.4898481849674, 10.456107071054218 ], [ -7.466180379984756, 10.429493710687378 ], [ -7.444424601110544, 10.334202389167729 ], [ -7.372335977940981, 10.344770193784907 ], [ -7.363395954968139, 10.252191869967906 ], [ -7.204749308956193, 10.234492688914703 ], [ -7.106357380946655, 10.207259207225599 ], [ -7.040521605981518, 10.140054013922761 ], [ -6.992410847985545, 10.149097389574807 ], [ -6.95938960800917, 10.185503440569342 ], [ -6.96161169395659, 10.211031588709782 ], [ -6.997113402991488, 10.25276031459874 ], [ -6.961249959906482, 10.34487354052068 ], [ -6.862754680051104, 10.343840035609357 ], [ -6.782087769021698, 10.37303721570245 ], [ -6.700335652924091, 10.341669603942352 ], [ -6.668270003970182, 10.365839971867224 ], [ -6.647780721965687, 10.432697647120197 ], [ -6.683075723967492, 10.451688735471301 ], [ -6.697545124990581, 10.488301492415431 ], [ -6.688966836977374, 10.607854915207685 ], [ -6.669174763912785, 10.654156988414808 ], [ -6.633983113865466, 10.653020099365627 ], [ -6.59858475789891, 10.604909345817008 ], [ -6.537554891058308, 10.5696918840606 ], [ -6.445984252969467, 10.552251072662592 ], [ -6.402782756031277, 10.569123439519604 ], [ -6.399217082044085, 10.592481188751313 ], [ -6.435855671976229, 10.628706355879405 ], [ -6.427019002797966, 10.686093003034749 ], [ -6.341701212127522, 10.691441571378226 ], [ -6.255970011816277, 10.726478137473778 ], [ -6.246616577027424, 10.657619328920919 ], [ -6.204448608093092, 10.629610714811037 ], [ -6.238658406895685, 10.597984702233887 ], [ -6.231372029040856, 10.560235095404494 ], [ -6.261292684042522, 10.514088040704735 ], [ -6.190289266093681, 10.49114371521247 ], [ -6.200366171092992, 10.448769040129081 ], [ -6.18057409691484, 10.420217778237104 ], [ -6.198764200922974, 10.370815110702523 ], [ -6.183933064901386, 10.358852012653372 ], [ -6.208324340989797, 10.331980284120851 ], [ -6.206153929971257, 10.31081878165746 ], [ -6.228323120007865, 10.316089784478116 ], [ -6.240673787973535, 10.302576391108806 ], [ -6.240001993958876, 10.251933484337764 ], [ -6.224809122980408, 10.25503407434341 ], [ -6.180884155046026, 10.215837512729392 ], [ -6.105333211021276, 10.189275822108016 ], [ -6.015932983032974, 10.189870103448349 ], [ -5.963016317041485, 10.282732653096637 ], [ -5.916404175018888, 10.266635440738257 ], [ -5.904725300990753, 10.275291237199164 ], [ -5.908962767993993, 10.330068256834419 ], [ -5.893304809956954, 10.365027355591632 ], [ -5.806281698042671, 10.413474028448215 ], [ -5.594046590054155, 10.453936677064322 ], [ -5.52257808504587, 10.425488799527692 ], [ -5.487489786942981, 10.392932626085736 ], [ -5.474157267998986, 10.35032541880433 ], [ -5.437828735047303, 10.340015981059699 ], [ -5.402533732009497, 10.300561017051839 ], [ -5.327086140977462, 10.302576391108806 ], [ -5.296648722011979, 10.32304026564373 ], [ -5.21758378099431, 10.319939675763461 ], [ -5.168439494018203, 10.291336776104316 ], [ -5.152058065011676, 10.305625307650995 ], [ -5.119882392134731, 10.293983271281229 ], [ -5.117073121004862, 10.208034364138038 ], [ -5.084413614985259, 10.22743886063431 ], [ -5.090718139998955, 10.17793284077659 ], [ -5.063949748036094, 10.179043893406396 ], [ -5.070719361029178, 10.16100881579591 ], [ -5.03945511899153, 10.134343768043589 ], [ -5.07009924300601, 10.110159201419556 ], [ -5.042865763004678, 10.103337912116782 ], [ -5.056482504013392, 10.097110904158978 ], [ -5.048343466018188, 10.085354516294593 ], [ -5.015580608013275, 10.097110904158978 ], [ -4.963335733997895, 10.040318501515584 ], [ -4.96020930999916, 10.00848581882922 ], [ -4.981396646999142, 10.007736510815272 ], [ -4.952948771690011, 9.953372829677278 ], [ -4.966074585367435, 9.901024768597253 ], [ -4.936670694687888, 9.873997827259668 ], [ -4.898016723685828, 9.888906477248987 ], [ -4.838459634593238, 9.869450275891824 ], [ -4.8175565183589, 9.836455066865726 ], [ -4.79846207709018, 9.842526980919461 ], [ -4.775905314057625, 9.788008335819802 ], [ -4.810115112355088, 9.781781401578625 ], [ -4.796446695750987, 9.754496091163816 ], [ -4.783191691011235, 9.758371889900175 ], [ -4.769962524267738, 9.737365487216358 ], [ -4.738336548065751, 9.753152585080276 ], [ -4.681079061388715, 9.682071737999408 ], [ -4.604029500318112, 9.727159407291659 ], [ -4.578320476489441, 9.69651533038547 ], [ -4.552198039496527, 9.696463657072307 ], [ -4.53909806373031, 9.744703397863065 ], [ -4.50995255465219, 9.745065111041882 ], [ -4.515921183591954, 9.675689482886629 ], [ -4.501710163755328, 9.65501895543234 ], [ -4.409105998253549, 9.647732717603244 ], [ -4.371175496251277, 9.582956310085592 ], [ -4.365026001967074, 9.624168183600545 ], [ -4.322476994086391, 9.608980735016857 ], [ -4.270328938906972, 9.743928298193834 ], [ -4.196974242673478, 9.764960537427125 ], [ -4.150258747953731, 9.818290697413268 ], [ -4.059876668381732, 9.796276666172645 ], [ -4.034968628090475, 9.817618944404852 ], [ -3.994609334450042, 9.820771316636732 ], [ -3.984041504337229, 9.851157024069222 ], [ -3.891624634213319, 9.893900161443707 ], [ -3.823482829352604, 9.895702117749742 ], [ -3.7696101481815, 9.931332964141216 ], [ -3.706461548072475, 9.941823245599888 ], [ -3.679641480016104, 9.932211410303761 ], [ -3.661658080678301, 9.948928625204104 ], [ -3.606260945859634, 9.918181207002213 ], [ -3.3891682538626, 9.913246106011075 ], [ -3.348343872104679, 9.886994564945866 ], [ -3.317182984195639, 9.901334808426924 ], [ -3.3017317312915, 9.841131801620378 ], [ -3.277857218912375, 9.843457100451332 ], [ -3.214760295285627, 9.915623378439568 ], [ -3.202564656878243, 9.908233495043467 ], [ -3.200006673610631, 9.845369012820267 ], [ -3.136935587762777, 9.829530242777256 ], [ -3.094560912953773, 9.733851401599548 ], [ -3.077094278879373, 9.719407809622407 ], [ -3.005677449914105, 9.72416205476836 ], [ -2.989993652033459, 9.708426629867953 ], [ -2.910153565213391, 9.542726228388343 ], [ -2.81041804979112, 9.411106167076642 ], [ -2.763676717697181, 9.391882488759521 ], [ -2.689210978087496, 9.488724304247572 ], [ -2.675671752708563, 9.471722579814017 ], [ -2.672416138066071, 9.374028453731052 ], [ -2.714997517812979, 9.311060600062468 ], [ -2.659807088203513, 9.272897744277646 ], [ -2.661150675077977, 9.253906594132291 ], [ -2.704817261137648, 9.218404913421569 ], [ -2.755201782159251, 9.143138199114468 ], [ -2.774838826902959, 9.054978082595156 ], [ -2.660788940901366, 9.014903006580402 ], [ -2.637689575271185, 8.931471594509643 ], [ -2.61717403184661, 8.915012433947862 ], [ -2.595573283026823, 8.828066929141263 ], [ -2.617225707874778, 8.789180334611817 ], [ -2.603118042025734, 8.78514951332893 ], [ -2.506328083914191, 8.209267427086854 ], [ -2.55810787003221, 8.16769380551275 ], [ -2.610662800799131, 8.164851470255217 ], [ -2.621876587207102, 8.135732029239662 ], [ -2.599759074163889, 8.070387157460988 ], [ -2.610559448167521, 8.040001417433611 ], [ -2.690864625159478, 8.009744860431095 ], [ -2.771221476947889, 7.93073147875729 ], [ -2.790625977237313, 7.943289007861786 ], [ -2.801193806892888, 7.850219566967999 ], [ -2.840002806845566, 7.820247211222327 ], [ -2.838168295192719, 7.79683797377736 ], [ -2.941521158813561, 7.577161257860821 ], [ -2.990458740019312, 7.270668447484322 ], [ -2.97281123799837, 7.214961242173803 ], [ -3.027536580029233, 7.138428462896528 ], [ -3.045933390870346, 7.071249014557591 ], [ -3.096592622955447, 7.054476947186114 ], [ -3.097274114353584, 7.054053345644977 ], [ -3.241683715965844, 6.810903201085889 ], [ -3.243078980025229, 6.774755567364404 ], [ -3.210419475047738, 6.715999476644328 ], [ -3.230056518924181, 6.661119039361807 ], [ -3.261114054113827, 6.633937337695238 ], [ -3.171721891015726, 6.249584697015529 ], [ -3.139364380057131, 6.219285617126156 ], [ -3.118073690033095, 6.163475056455725 ], [ -3.087765463023744, 5.996689366385509 ], [ -3.022523966978663, 5.85450163472888 ], [ -3.029758666974717, 5.704252404988 ], [ -2.964801391051911, 5.709781832706197 ], [ -2.9749041339437, 5.647279118443862 ], [ -2.969503946978419, 5.621440923984458 ], [ -2.945861979014333, 5.608289296543449 ], [ -2.87749405997054, 5.636814657192469 ], [ -2.806258098012715, 5.618495390849168 ], [ -2.7855875250039, 5.595034284793979 ], [ -2.761713013008182, 5.454913641916558 ], [ -2.730138712979069, 5.373161504773693 ], [ -2.74259273298913, 5.343137504138522 ], [ -2.789566608995743, 5.346858213041134 ], [ -2.796129516008803, 5.284975694363723 ], [ -2.774890503000994, 5.239577942789786 ], [ -2.778817912006789, 5.201001491041289 ], [ -2.75701045699288, 5.179865819809357 ], [ -2.780884968997201, 5.150875344011559 ], [ -2.843698697002639, 5.149115303947796 ], [ -2.846180792987685, 5.176988014264142 ], [ -2.879383918011556, 5.181341872213999 ], [ -2.946685351011678, 5.177069411106445 ], [ -2.943511522997741, 5.136786198484177 ], [ -2.977772590000494, 5.114976304398549 ], [ -3.062814908001668, 5.156642972143255 ], [ -3.139149543004725, 5.142320057125189 ], [ -3.205067512002823, 5.218654691837441 ], [ -3.172718879004193, 5.252183337701078 ], [ -3.159087693990431, 5.307440490967301 ], [ -3.127919074976562, 5.324896537060811 ], [ -3.127756313988942, 5.35960520297996 ], [ -3.146066860990136, 5.36884185778443 ], [ -3.189768033016227, 5.354641028182044 ], [ -3.220529752004992, 5.362046620122851 ], [ -3.262074347995374, 5.34088775920172 ], [ -3.246937629014076, 5.297593500736341 ], [ -3.28262285099661, 5.28017812496763 ], [ -3.289418098004347, 5.252183337701078 ], [ -3.240956183995779, 5.231675520421891 ], [ -3.27578691298599, 5.225490618391428 ], [ -3.303049283002611, 5.190130928635702 ], [ -3.320708788011798, 5.193508212251339 ], [ -3.303089972997066, 5.155707096226746 ], [ -3.275786913003063, 5.149115303947796 ], [ -3.312163866001211, 5.119940497787556 ], [ -3.538751071159095, 5.157289593538233 ], [ -3.718006965003451, 5.188706774930757 ], [ -3.721424934010538, 5.238511465766587 ], [ -3.75552324100296, 5.190130928635702 ], [ -3.987049933987384, 5.243963927657617 ], [ -4.001942512001851, 5.266506252975166 ], [ -3.962310350990049, 5.262437236976569 ], [ -3.932972786016172, 5.286932692295503 ], [ -3.902902798984953, 5.258978575257392 ], [ -3.899525520016037, 5.286932692295503 ], [ -3.775380011983267, 5.244777727099509 ], [ -3.782215950001739, 5.266506252975166 ], [ -3.728871223001747, 5.266506252975166 ], [ -3.715687628998169, 5.282294011038975 ], [ -3.758900520013608, 5.366197014246216 ], [ -3.804921028025287, 5.375962645277427 ], [ -3.814035611011285, 5.359808666926281 ], [ -3.735015429015347, 5.286932692295503 ], [ -3.743967251984861, 5.27399322289133 ], [ -3.796498176013231, 5.272691155044584 ], [ -3.86668860600169, 5.303615627922725 ], [ -3.878407355991853, 5.326646221841868 ], [ -3.891997851000071, 5.313625393073477 ], [ -3.906320766974904, 5.348374729196758 ], [ -3.920969205014307, 5.316229566335932 ], [ -4.009348111000097, 5.313625393073477 ], [ -3.983998175993189, 5.300930076597707 ], [ -3.954741990988035, 5.307440490967301 ], [ -3.940541144989424, 5.293158264640422 ], [ -3.989084439014257, 5.269110426219838 ], [ -4.060902472989626, 5.299546611901988 ], [ -4.078521288007598, 5.287787180776172 ], [ -4.125477667987505, 5.307440490967301 ], [ -4.160145637013625, 5.29340241761844 ], [ -4.200550910987299, 5.307440490967301 ], [ -4.24103756398504, 5.283921609932253 ], [ -4.255767382017499, 5.286932692295503 ], [ -4.248931443987153, 5.307440490967301 ], [ -4.274566209988222, 5.312404684509946 ], [ -4.297352668004303, 5.29999421004822 ], [ -4.321441209988674, 5.310980530778313 ], [ -4.351307746015149, 5.272691155044584 ], [ -4.39240475200443, 5.29999421004822 ], [ -4.423817511996964, 5.281561589659461 ], [ -4.42650305900443, 5.29999421004822 ], [ -4.463531053982748, 5.298244525273719 ], [ -4.481678840015602, 5.272691155044584 ], [ -4.463775193982099, 5.276109108960743 ], [ -4.453724738982828, 5.258978575257392 ], [ -4.543771939002154, 5.266506252975166 ], [ -4.56362871000459, 5.29999421004822 ], [ -4.55748450400215, 5.266506252975166 ], [ -4.61213131401312, 5.238511465766587 ], [ -4.651966926014078, 5.249172274130156 ], [ -4.687163865993957, 5.231675520421891 ], [ -4.714466926006255, 5.252183337701078 ], [ -4.667307095006206, 5.252183337701078 ], [ -4.68716386601634, 5.272691155044584 ], [ -4.673451301000113, 5.313625393073477 ], [ -4.702504035979122, 5.278306373097759 ], [ -4.749256965016539, 5.272691155044584 ], [ -4.722157355999368, 5.2522647157677 ], [ -4.803822395004056, 5.204413154736526 ], [ -4.808583136983282, 5.180487364970912 ], [ -4.747670051001962, 5.172349351864627 ], [ -4.742421027984547, 5.197577209429105 ], [ -4.704741991016467, 5.211330478117646 ], [ -4.687163865984751, 5.197577209429105 ], [ -4.608306443984486, 5.211167703208787 ], [ -4.559559699980034, 5.196966855158101 ], [ -4.536366340003802, 5.204413154736526 ], [ -4.571034309001112, 5.218003648531258 ], [ -4.530140753994167, 5.231675520421891 ], [ -4.522694465001103, 5.218003648531258 ], [ -4.412831184012512, 5.238511465766587 ], [ -4.40807044200716, 5.223618885313883 ], [ -4.385568814005826, 5.252183337701078 ], [ -4.305816209991256, 5.244574281933192 ], [ -4.183827277995682, 5.28017812496763 ], [ -4.060454882017025, 5.283351963463227 ], [ -4.029204882014033, 5.272691155044584 ], [ -4.070220507001902, 5.266506252975166 ], [ -3.995757615994838, 5.231675520421891 ], [ -4.620513476013445, 5.180731517944637 ], [ -4.892648891992892, 5.128648176051049 ], [ -4.982004360993087, 5.136135155186962 ], [ -4.968983528004657, 5.149115303947796 ], [ -5.003773566978309, 5.16058990219766 ], [ -5.009917772983697, 5.197577209429105 ], [ -4.997059700014368, 5.212795320860915 ], [ -5.064279752017619, 5.209214592069461 ], [ -5.112294074985677, 5.183294983344377 ], [ -5.15786699100661, 5.212225655621455 ], [ -5.22158769398243, 5.211167703208787 ], [ -5.234050636133852, 5.22306527412204 ], [ -5.253041144975803, 5.214097388695595 ], [ -5.321522589996426, 5.230210677674219 ], [ -5.323963996004479, 5.204413154736526 ], [ -5.338286912982035, 5.211167703208787 ], [ -5.32448258232696, 5.190827129818097 ] ] ] ] } }
]
}
