{
"type": "FeatureCollection",
"name": "limite_des_forets",
"crs": { "type": "name", "properties": { "name": "urn:ogc:def:crs:OGC:1.3:CRS84" } },
"features": [
{ "type": "Feature", "properties": { "id": "polygo_appoueba_zaranou.1", "Name": null, "description": null, "timestamp": null, "begin": null, "end": null, "altitudeMode": null, "tessellate": -1, "extrude": 0, "visibility": -1, "drawOrder": null, "icon": null, "FID_": 0, "Entity": "LWPolyline", "Layer": "Foret_Appoueba", "Color": 7, "Linetype": "Continuous", "Elevation": 0.0, "LineWt": 25, "RefName": null, "path": "C:/RA-SIG/rainforest_alliance/TechForest/Delimitation_AFOR_ANGETEC/POLYGO_APPOUEBA/POLYGO_APPOUEBA.shp", "area_ha": 3.914256, "Nom": "Apouéba" }, "geometry": { "type": "MultiPolygon", "coordinates": [ [ [ [ -3.41852245982483, 6.5368628406239 ], [ -3.41841882779624, 6.53694293148846 ], [ -3.41789458897536, 6.53715967609117 ], [ -3.41759245536098, 6.53724882101698 ], [ -3.41692291493587, 6.53731752836034 ], [ -3.41650506677574, 6.53720823832035 ], [ -3.41653159726639, 6.53704524381306 ], [ -3.41637454834678, 6.53702166868655 ], [ -3.41628571284966, 6.53708100493012 ], [ -3.41623559245535, 6.53738032325908 ], [ -3.41584436320763, 6.53721471103345 ], [ -3.41579674759552, 6.53695992055621 ], [ -3.41574625978007, 6.5368147685311 ], [ -3.41568960410892, 6.53637627097079 ], [ -3.41561534539019, 6.53614817070246 ], [ -3.4161869574424, 6.5358928685111 ], [ -3.41665469891053, 6.53543023208517 ], [ -3.41722690385026, 6.53589200748867 ], [ -3.41799177137801, 6.53644844256288 ], [ -3.41852245982483, 6.5368628406239 ] ] ] ] } },
{ "type": "Feature", "properties": { "id": "polygo_appoueba_zaranou.2", "Name": null, "description": null, "timestamp": null, "begin": null, "end": null, "altitudeMode": null, "tessellate": -1, "extrude": 0, "visibility": -1, "drawOrder": null, "icon": null, "FID_": 0, "Entity": "LWPolyline", "Layer": "Foret_Zaranou", "Color": 7, "Linetype": "Continuous", "Elevation": 0.0, "LineWt": 25, "RefName": null, "path": "C:/RA-SIG/rainforest_alliance/TechForest/Delimitation_AFOR_ANGETEC/POLYGO_ZARANOU/POLYGO_ZARANOU.shp", "area_ha": 50.461401, "Nom": "Zaranou" }, "geometry": { "type": "MultiPolygon", "coordinates": [ [ [ [ -3.36491384389408, 6.42123324049856 ], [ -3.36442641714471, 6.42172152740859 ], [ -3.36222617822501, 6.42231315535966 ], [ -3.36220338674447, 6.42216565475727 ], [ -3.35965099694953, 6.42205397938252 ], [ -3.35904911034481, 6.42108986897941 ], [ -3.3587880729711, 6.42089714535185 ], [ -3.35879932916135, 6.42077231556974 ], [ -3.3584702147585, 6.42055694455775 ], [ -3.35832251831529, 6.42022797197493 ], [ -3.35816351816156, 6.41995574447037 ], [ -3.35776637492088, 6.41978581030431 ], [ -3.35753951179447, 6.41979731614828 ], [ -3.35717620975131, 6.41935501913943 ], [ -3.35702873578647, 6.41934377449315 ], [ -3.35656323221376, 6.41874268393083 ], [ -3.35649493432345, 6.4184023079912 ], [ -3.35616561744327, 6.41789190179431 ], [ -3.35554061496847, 6.41629234529731 ], [ -3.35645963376177, 6.41657539318946 ], [ -3.35666374542165, 6.41647312413575 ], [ -3.35880690082573, 6.41538227324944 ], [ -3.35898838813383, 6.41537079873163 ], [ -3.35915881006897, 6.41575649254931 ], [ -3.35981669098451, 6.4156992939115 ], [ -3.36073473707095, 6.41459794643849 ], [ -3.36113146967808, 6.41418915909483 ], [ -3.36180172404593, 6.41559576960256 ], [ -3.36297149715792, 6.41756939747455 ], [ -3.36408455379996, 6.41953171489801 ], [ -3.36491384389408, 6.42123324049856 ] ] ] ] } }
]
}
